start=new Date('2022-09-11T00:00:00.000Z').valueOf();
sats=[{"REF_FRAME":"TEME","TLE_LINE2":"2 49169  69.9992 252.1390 0003381 257.6044 102.4737 14.98336928 55311","TIME_SYSTEM":"UTC","SITE":"AFWTR","OBJECT_ID":"2021-082AR","CLASSIFICATION_TYPE":"U","LAUNCH_DATE":"2021-09-14","MEAN_MOTION_DDOT":"0.0000000000000","ARG_OF_PERICENTER":"257.6044","GP_ID":"212229309","OBJECT_TYPE":"PAYLOAD","MEAN_MOTION_DOT":"0.00001969","INCLINATION":"69.9992","ELEMENT_SET_NO":"999","APOAPSIS":"574.386","DECAY_DATE":null,"EPOCH":"2022-09-10T12:22:27.359616","SEMIMAJOR_AXIS":"6950.171","PERIAPSIS":"569.687","FILE":"3567066","EPHEMERIS_TYPE":"0","MEAN_ELEMENT_THEORY":"SGP4","RCS_SIZE":"LARGE","ECCENTRICITY":"0.00033810","NORAD_CAT_ID":"49169","BSTAR":"0.00017271000000","PERIOD":"96.107","TLE_LINE1":"1 49169U 21082AR  22253.51559444  .00001969  00000-0  17271-3 0  9999","REV_AT_EPOCH":"5531","CENTER_NAME":"EARTH","COUNTRY_CODE":"US","MEAN_ANOMALY":"102.4737","OBJECT_NAME":"STARLINK-3046","RA_OF_ASC_NODE":"252.1390","MEAN_MOTION":"14.98336928"},{"NORAD_CAT_ID":"49170","PERIOD":"96.107","BSTAR":"-0.00000490180000","TLE_LINE1":"1 49170U 21082AS  22253.45498746 -.00000152  00000-0 -49018-5 0  9992","REV_AT_EPOCH":"5481","CENTER_NAME":"EARTH","COUNTRY_CODE":"US","MEAN_ANOMALY":"111.0368","RA_OF_ASC_NODE":"272.2783","OBJECT_NAME":"STARLINK-3074","MEAN_MOTION":"14.98328734","EPOCH":"2022-09-10T10:55:10.916544","SEMIMAJOR_AXIS":"6950.197","PERIAPSIS":"569.922","FILE":"3567493","EPHEMERIS_TYPE":"0","RCS_SIZE":"LARGE","MEAN_ELEMENT_THEORY":"SGP4","ECCENTRICITY":"0.00030790","OBJECT_TYPE":"PAYLOAD","MEAN_MOTION_DOT":"-0.00000152","INCLINATION":"69.9992","ELEMENT_SET_NO":"999","APOAPSIS":"574.202","DECAY_DATE":null,"REF_FRAME":"TEME","TLE_LINE2":"2 49170  69.9992 272.2783 0003079 249.0462 111.0368 14.98328734 54811","TIME_SYSTEM":"UTC","SITE":"AFWTR","OBJECT_ID":"2021-082AS","CLASSIFICATION_TYPE":"U","LAUNCH_DATE":"2021-09-14","MEAN_MOTION_DDOT":"0.0000000000000","ARG_OF_PERICENTER":"249.0462","GP_ID":"212240683"},{"CLASSIFICATION_TYPE":"U","SITE":"AFWTR","OBJECT_ID":"2021-082AT","TLE_LINE2":"2 49171  69.9981 272.2390 0003282 257.5892 102.4900 14.98321333 55973","TIME_SYSTEM":"UTC","REF_FRAME":"TEME","ARG_OF_PERICENTER":"257.5892","GP_ID":"212235832","MEAN_MOTION_DDOT":"0.0000000000000","LAUNCH_DATE":"2021-09-14","INCLINATION":"69.9981","MEAN_MOTION_DOT":"0.00001165","OBJECT_TYPE":"PAYLOAD","DECAY_DATE":null,"APOAPSIS":"574.366","ELEMENT_SET_NO":"999","FILE":"3567279","PERIAPSIS":"569.804","SEMIMAJOR_AXIS":"6950.220","EPOCH":"2022-09-10T11:22:39.741312","ECCENTRICITY":"0.00032820","MEAN_ELEMENT_THEORY":"SGP4","RCS_SIZE":"LARGE","EPHEMERIS_TYPE":"0","CENTER_NAME":"EARTH","REV_AT_EPOCH":"5597","TLE_LINE1":"1 49171U 21082AT  22253.47407108  .00001165  00000-0  10544-3 0  9990","PERIOD":"96.108","BSTAR":"0.00010544000000","NORAD_CAT_ID":"49171","MEAN_MOTION":"14.98321333","OBJECT_NAME":"STARLINK-3107","RA_OF_ASC_NODE":"272.2390","COUNTRY_CODE":"US","MEAN_ANOMALY":"102.4900"},{"EPOCH":"2022-09-10T10:02:09.928608","SEMIMAJOR_AXIS":"6950.203","PERIAPSIS":"570.203","FILE":"3567066","EPHEMERIS_TYPE":"0","RCS_SIZE":"LARGE","MEAN_ELEMENT_THEORY":"SGP4","ECCENTRICITY":"0.00026830","NORAD_CAT_ID":"49172","PERIOD":"96.107","BSTAR":"-0.00002621100000","REV_AT_EPOCH":"5529","TLE_LINE1":"1 49172U 21082AU  22253.41817047 -.00000406  00000-0 -26211-4 0  9990","CENTER_NAME":"EARTH","MEAN_ANOMALY":"102.6803","COUNTRY_CODE":"US","RA_OF_ASC_NODE":"252.3839","OBJECT_NAME":"STARLINK-3091","MEAN_MOTION":"14.98326759","REF_FRAME":"TEME","TLE_LINE2":"2 49172  69.9984 252.3839 0002683 257.4056 102.6803 14.98326759 55295","TIME_SYSTEM":"UTC","SITE":"AFWTR","OBJECT_ID":"2021-082AU","CLASSIFICATION_TYPE":"U","LAUNCH_DATE":"2021-09-14","MEAN_MOTION_DDOT":"0.0000000000000","ARG_OF_PERICENTER":"257.4056","GP_ID":"212229068","OBJECT_TYPE":"PAYLOAD","MEAN_MOTION_DOT":"-0.00000406","INCLINATION":"69.9984","ELEMENT_SET_NO":"999","APOAPSIS":"573.933","DECAY_DATE":null},{"SITE":"AFWTR","OBJECT_ID":"2021-082AV","CLASSIFICATION_TYPE":"U","REF_FRAME":"TEME","TIME_SYSTEM":"UTC","TLE_LINE2":"2 49173  69.9989 252.3240 0002973 261.8398  98.2424 14.98334200 55308","LAUNCH_DATE":"2021-09-14","MEAN_MOTION_DDOT":"0.0000000000000","ARG_OF_PERICENTER":"261.8398","GP_ID":"212228809","MEAN_MOTION_DOT":"0.00006180","INCLINATION":"69.9989","OBJECT_TYPE":"PAYLOAD","DECAY_DATE":null,"ELEMENT_SET_NO":"999","APOAPSIS":"574.111","PERIAPSIS":"569.979","FILE":"3567066","EPOCH":"2022-09-10T10:32:36.241440","SEMIMAJOR_AXIS":"6950.180","MEAN_ELEMENT_THEORY":"SGP4","RCS_SIZE":"LARGE","ECCENTRICITY":"0.00029730","EPHEMERIS_TYPE":"0","BSTAR":"0.00052524000000","PERIOD":"96.107","REV_AT_EPOCH":"5530","TLE_LINE1":"1 49173U 21082AV  22253.43930835  .00006180  00000-0  52524-3 0  9992","CENTER_NAME":"EARTH","NORAD_CAT_ID":"49173","COUNTRY_CODE":"US","MEAN_ANOMALY":"98.2424","RA_OF_ASC_NODE":"252.3240","OBJECT_NAME":"STARLINK-3045","MEAN_MOTION":"14.98334200"},{"APOAPSIS":"577.038","ELEMENT_SET_NO":"999","DECAY_DATE":null,"OBJECT_TYPE":"PAYLOAD","INCLINATION":"69.9983","MEAN_MOTION_DOT":"0.00001756","GP_ID":"212228066","ARG_OF_PERICENTER":"275.5209","MEAN_MOTION_DDOT":"0.0000000000000","LAUNCH_DATE":"2021-09-14","TIME_SYSTEM":"UTC","TLE_LINE2":"2 49174  69.9983 252.1577 0002224 275.5209  84.5696 14.97220426 56488","REF_FRAME":"TEME","CLASSIFICATION_TYPE":"U","OBJECT_ID":"2021-082AW","SITE":"AFWTR","MEAN_MOTION":"14.97220426","OBJECT_NAME":"STARLINK-3047","RA_OF_ASC_NODE":"252.1577","COUNTRY_CODE":"US","MEAN_ANOMALY":"84.5696","NORAD_CAT_ID":"49174","CENTER_NAME":"EARTH","TLE_LINE1":"1 49174U 21082AW  22253.50462432  .00001756  00000-0  15931-3 0  9999","REV_AT_EPOCH":"5648","BSTAR":"0.00015931000000","PERIOD":"96.178","EPHEMERIS_TYPE":"0","ECCENTRICITY":"0.00022240","MEAN_ELEMENT_THEORY":"SGP4","RCS_SIZE":"LARGE","SEMIMAJOR_AXIS":"6953.626","EPOCH":"2022-09-10T12:06:39.541248","FILE":"3567066","PERIAPSIS":"573.945"},{"LAUNCH_DATE":"2021-09-14","MEAN_MOTION_DDOT":"0.0000000000000","GP_ID":"212269705","ARG_OF_PERICENTER":"258.2656","OBJECT_ID":"2021-082AX","SITE":"AFWTR","CLASSIFICATION_TYPE":"U","REF_FRAME":"TEME","TLE_LINE2":"2 49175  69.9985 252.0975 0003218 258.2656 101.8142 14.98323280 55313","TIME_SYSTEM":"UTC","DECAY_DATE":null,"ELEMENT_SET_NO":"999","APOAPSIS":"574.315","MEAN_MOTION_DOT":"0.00000989","INCLINATION":"69.9985","OBJECT_TYPE":"PAYLOAD","RCS_SIZE":"LARGE","MEAN_ELEMENT_THEORY":"SGP4","ECCENTRICITY":"0.00032180","EPHEMERIS_TYPE":"0","PERIAPSIS":"569.842","FILE":"3567798","EPOCH":"2022-09-10T12:46:58.484640","SEMIMAJOR_AXIS":"6950.214","MEAN_ANOMALY":"101.8142","COUNTRY_CODE":"US","OBJECT_NAME":"STARLINK-3087","RA_OF_ASC_NODE":"252.0975","MEAN_MOTION":"14.98323280","BSTAR":"0.00009069400000","PERIOD":"96.107","TLE_LINE1":"1 49175U 21082AX  22253.53262135  .00000989  00000-0  90694-4 0  9998","REV_AT_EPOCH":"5531","CENTER_NAME":"EARTH","NORAD_CAT_ID":"49175"},{"OBJECT_TYPE":"PAYLOAD","MEAN_MOTION_DOT":"0.00001098","INCLINATION":"70.0005","ELEMENT_SET_NO":"999","APOAPSIS":"579.035","DECAY_DATE":null,"REF_FRAME":"TEME","TIME_SYSTEM":"UTC","TLE_LINE2":"2 49176  70.0005 232.1869 0002890 263.7540  96.3289 14.96725284 55799","OBJECT_ID":"2021-082AY","SITE":"AFWTR","CLASSIFICATION_TYPE":"U","LAUNCH_DATE":"2021-09-14","MEAN_MOTION_DDOT":"0.0000000000000","ARG_OF_PERICENTER":"263.7540","GP_ID":"212228568","NORAD_CAT_ID":"49176","PERIOD":"96.210","BSTAR":"0.00010392000000","REV_AT_EPOCH":"5579","TLE_LINE1":"1 49176U 21082AY  22253.42721831  .00001098  00000-0  10392-3 0  9998","CENTER_NAME":"EARTH","COUNTRY_CODE":"US","MEAN_ANOMALY":"96.3289","RA_OF_ASC_NODE":"232.1869","OBJECT_NAME":"STARLINK-3069","MEAN_MOTION":"14.96725284","EPOCH":"2022-09-10T10:15:11.661984","SEMIMAJOR_AXIS":"6955.160","PERIAPSIS":"575.015","FILE":"3567066","EPHEMERIS_TYPE":"0","MEAN_ELEMENT_THEORY":"SGP4","RCS_SIZE":"LARGE","ECCENTRICITY":"0.00028900"},{"OBJECT_NAME":"STARLINK-3103","RA_OF_ASC_NODE":"232.3117","MEAN_ANOMALY":"98.0014","COUNTRY_CODE":"US","MEAN_MOTION":"14.96736856","NORAD_CAT_ID":"49177","PERIOD":"96.209","BSTAR":"-0.00028175000000","CENTER_NAME":"EARTH","TLE_LINE1":"1 49177U 21082AZ  22253.37994020 -.00003317  00000-0 -28175-3 0  9991","REV_AT_EPOCH":"5698","EPHEMERIS_TYPE":"0","RCS_SIZE":"LARGE","MEAN_ELEMENT_THEORY":"SGP4","ECCENTRICITY":"0.00029630","SEMIMAJOR_AXIS":"6955.124","EPOCH":"2022-09-10T09:07:06.833280","PERIAPSIS":"574.928","FILE":"3567066","APOAPSIS":"579.050","ELEMENT_SET_NO":"999","DECAY_DATE":null,"OBJECT_TYPE":"PAYLOAD","INCLINATION":"70.0004","MEAN_MOTION_DOT":"-0.00003317","LAUNCH_DATE":"2021-09-14","GP_ID":"212229310","ARG_OF_PERICENTER":"262.0808","MEAN_MOTION_DDOT":"0.0000000000000","TLE_LINE2":"2 49177  70.0004 232.3117 0002963 262.0808  98.0014 14.96736856 56981","TIME_SYSTEM":"UTC","REF_FRAME":"TEME","SITE":"AFWTR","OBJECT_ID":"2021-082AZ","CLASSIFICATION_TYPE":"U"},{"EPHEMERIS_TYPE":"0","ECCENTRICITY":"0.00033860","RCS_SIZE":"LARGE","MEAN_ELEMENT_THEORY":"SGP4","SEMIMAJOR_AXIS":"6950.217","EPOCH":"2022-09-10T10:27:44.097120","FILE":"3567066","PERIAPSIS":"569.728","MEAN_MOTION":"14.98322297","RA_OF_ASC_NODE":"272.3415","OBJECT_NAME":"STARLINK-3086","COUNTRY_CODE":"US","MEAN_ANOMALY":"111.9933","NORAD_CAT_ID":"49178","CENTER_NAME":"EARTH","REV_AT_EPOCH":"5596","TLE_LINE1":"1 49178U 21082BA  22253.43592705  .00001477  00000-0  13159-3 0  9992","PERIOD":"96.107","BSTAR":"0.00013159000000","ARG_OF_PERICENTER":"248.0866","GP_ID":"212227566","MEAN_MOTION_DDOT":"0.0000000000000","LAUNCH_DATE":"2021-09-14","TIME_SYSTEM":"UTC","TLE_LINE2":"2 49178  69.9990 272.3415 0003386 248.0866 111.9933 14.98322297 55960","REF_FRAME":"TEME","CLASSIFICATION_TYPE":"U","OBJECT_ID":"2021-082BA","SITE":"AFWTR","APOAPSIS":"574.435","ELEMENT_SET_NO":"999","DECAY_DATE":null,"OBJECT_TYPE":"PAYLOAD","INCLINATION":"69.9990","MEAN_MOTION_DOT":"0.00001477"}];
